QIANFAN-17              
1 60395U 24140S   25245.56136967  .00000118  00000+0  16396-3 0  9992
2 60395  88.9825 309.8990 0016859 133.8778 226.3769 13.50967635 54479
QIANFAN-18              
1 60396U 24140T   25245.54087231  .00000135  00000+0  19043-3 0  9991
2 60396  88.9817 309.4425 0016464 118.5788 241.7022 13.50969455 53860
QIANFAN-19              
1 61552U 24185A   25245.54618379  .00000768  00000+0  39592-3 0  9991
2 61552  88.9762  89.5513 0004869 272.6231  87.4398 14.14141297 55364
QIANFAN-20              
1 61553U 24185B   25245.54261724  .00000691  00000+0  39343-3 0  9999
2 61553  88.9762  89.7736 0004535 324.9059  35.1825 14.08693017 55240
QIANFAN-21              
1 61554U 24185C   25245.59646528  .00001058  00000+0  46904-3 0  9993
2 61554  88.9677  88.8404 0010084 344.4441  15.6439 14.22399568 55598
QIANFAN-22              
1 61555U 24185D   25245.59318555  .00000352  00000+0  29317-3 0  9995
2 61555  88.9747  90.3421 0005280 318.7323  41.3449 13.86248824 54929
QIANFAN-23              
1 61556U 24185E   25245.59315589  .00000954  00000+0  47593-3 0  9994
2 61556  88.9755  89.4025 0005868 289.1858  70.8695 14.16117469 55435
QIANFAN-24              
1 61557U 24185F   25245.54407110  .00001258  00000+0  54611-3 0  9999
2 61557  88.9736  88.9788 0007407 270.2266  89.8078 14.23600993 55623
